{
  "type": "FeatureCollection",
  "features": [
    {
      "type": "Feature",
      "properties": {
        "norad_id": 15362,
        "name": "NOVA 3",
        "group": "nnss",
        "lat": 14.461248055636787,
        "lon": 80.6385204728962,
        "alt_km": 1168.3533448792841,
        "timestamp": "2025-12-24T05:51:19.877130+00:00",
        "meta_object_name": "NOVA 3",
        "meta_object_id": "1984-110A",
        "meta_epoch": "2025-12-23T23:24:01.589760",
        "meta_mean_motion": 13.23045905,
        "meta_eccentricity": 0.0029891,
        "meta_inclination": 90.1218,
        "meta_ra_of_asc_node": 80.6668,
        "meta_arg_of_pericenter": 299.5559,
        "meta_mean_anomaly": 234.3675,
        "meta_ephemeris_type": 0,
        "meta_classification_type": "U",
        "meta_norad_cat_id": 15362,
        "meta_element_set_no": 999,
        "meta_rev_at_epoch": 98847,
        "meta_bstar": 0.00018665977,
        "meta_mean_motion_dot": 8.7e-07,
        "meta_mean_motion_ddot": 0,
        "tle_line1": "1 15362U 84110A   25357.97501840  .00000087  00000+0  18666-3 0  9991",
        "tle_line2": "2 15362  90.1218  80.6668 0029891 299.5559 234.3675 13.23045905988475"
      },
      "geometry": {
        "type": "Point",
        "coordinates": [
          80.6385204728962,
          14.461248055636787
        ]
      }
    },
    {
      "type": "Feature",
      "properties": {
        "norad_id": 15935,
        "name": "OSCAR 30",
        "group": "nnss",
        "lat": -87.2198864579693,
        "lon": 103.44528216297549,
        "alt_km": 1226.0940621075815,
        "timestamp": "2025-12-24T05:51:19.877141+00:00",
        "meta_object_name": "OSCAR 30",
        "meta_object_id": "1985-066A",
        "meta_epoch": "2025-12-23T07:11:12.347808",
        "meta_mean_motion": 13.36080022,
        "meta_eccentricity": 0.0168989,
        "meta_inclination": 90.1654,
        "meta_ra_of_asc_node": 100.0198,
        "meta_arg_of_pericenter": 54.3971,
        "meta_mean_anomaly": 359.2429,
        "meta_ephemeris_type": 0,
        "meta_classification_type": "U",
        "meta_norad_cat_id": 15935,
        "meta_element_set_no": 999,
        "meta_rev_at_epoch": 96594,
        "meta_bstar": 0.00017615654,
        "meta_mean_motion_dot": 1.08e-06,
        "meta_mean_motion_ddot": 0,
        "tle_line1": "1 15935U 85066A   25357.29944847  .00000108  00000+0  17616-3 0  9999",
        "tle_line2": "2 15935  90.1654 100.0198 0168989  54.3971 359.2429 13.36080022965941"
      },
      "geometry": {
        "type": "Point",
        "coordinates": [
          103.44528216297549,
          -87.2198864579693
        ]
      }
    },
    {
      "type": "Feature",
      "properties": {
        "norad_id": 15936,
        "name": "OSCAR 24",
        "group": "nnss",
        "lat": -18.496274157150637,
        "lon": 92.56884475719808,
        "alt_km": 1097.7713608274835,
        "timestamp": "2025-12-24T05:51:19.877151+00:00",
        "meta_object_name": "OSCAR 24",
        "meta_object_id": "1985-066B",
        "meta_epoch": "2025-12-23T12:01:29.855136",
        "meta_mean_motion": 13.35937222,
        "meta_eccentricity": 0.01701385,
        "meta_inclination": 90.1791,
        "meta_ra_of_asc_node": 92.4958,
        "meta_arg_of_pericenter": 60.2847,
        "meta_mean_anomaly": 312.2416,
        "meta_ephemeris_type": 0,
        "meta_classification_type": "U",
        "meta_norad_cat_id": 15936,
        "meta_element_set_no": 999,
        "meta_rev_at_epoch": 96787,
        "meta_bstar": 0.00013443376,
        "meta_mean_motion_dot": 8.4e-07,
        "meta_mean_motion_ddot": 0,
        "tle_line1": "1 15936U 85066B   25357.50103999  .00000084  00000+0  13443-3 0  9996",
        "tle_line2": "2 15936  90.1791  92.4958 0170138  60.2847 312.2416 13.35937222967870"
      },
      "geometry": {
        "type": "Point",
        "coordinates": [
          92.56884475719808,
          -18.496274157150637
        ]
      }
    },
    {
      "type": "Feature",
      "properties": {
        "norad_id": 17070,
        "name": "POLAR BEAR",
        "group": "nnss",
        "lat": 4.969032754711201,
        "lon": -176.653656967693,
        "alt_km": 978.2340258940303,
        "timestamp": "2025-12-24T05:51:19.877162+00:00",
        "meta_object_name": "POLAR BEAR",
        "meta_object_id": "1986-088A",
        "meta_epoch": "2025-12-23T23:26:20.446656",
        "meta_mean_motion": 13.75253045,
        "meta_eccentricity": 0.00412898,
        "meta_inclination": 89.617,
        "meta_ra_of_asc_node": 183.3238,
        "meta_arg_of_pericenter": 86.9267,
        "meta_mean_anomaly": 35.783,
        "meta_ephemeris_type": 0,
        "meta_classification_type": "U",
        "meta_norad_cat_id": 17070,
        "meta_element_set_no": 999,
        "meta_rev_at_epoch": 96133,
        "meta_bstar": 9.1732695e-05,
        "meta_mean_motion_dot": 1e-06,
        "meta_mean_motion_ddot": 0,
        "tle_line1": "1 17070U 86088A   25357.97662554  .00000100  00000+0  91733-4 0  9998",
        "tle_line2": "2 17070  89.6170 183.3238 0041289  86.9267  35.7830 13.75253045961331"
      },
      "geometry": {
        "type": "Point",
        "coordinates": [
          -176.653656967693,
          4.969032754711201
        ]
      }
    },
    {
      "type": "Feature",
      "properties": {
        "norad_id": 18361,
        "name": "OSCAR 27",
        "group": "nnss",
        "lat": 86.85352713005372,
        "lon": 72.8842299061594,
        "alt_km": 1101.3342348402293,
        "timestamp": "2025-12-24T05:51:19.877172+00:00",
        "meta_object_name": "OSCAR 27",
        "meta_object_id": "1987-080A",
        "meta_epoch": "2025-12-23T22:16:33.536352",
        "meta_mean_motion": 13.44908878,
        "meta_eccentricity": 0.01038558,
        "meta_inclination": 90.3737,
        "meta_ra_of_asc_node": 79.6907,
        "meta_arg_of_pericenter": 191.5852,
        "meta_mean_anomaly": 168.2905,
        "meta_ephemeris_type": 0,
        "meta_classification_type": "U",
        "meta_norad_cat_id": 18361,
        "meta_element_set_no": 999,
        "meta_rev_at_epoch": 87707,
        "meta_bstar": 0.00016473483,
        "meta_mean_motion_dot": 1.08e-06,
        "meta_mean_motion_ddot": 0,
        "tle_line1": "1 18361U 87080A   25357.92816593  .00000108  00000+0  16473-3 0  9999",
        "tle_line2": "2 18361  90.3737  79.6907 0103855 191.5852 168.2905 13.44908878877073"
      },
      "geometry": {
        "type": "Point",
        "coordinates": [
          72.8842299061594,
          86.85352713005372
        ]
      }
    },
    {
      "type": "Feature",
      "properties": {
        "norad_id": 18362,
        "name": "OSCAR 29",
        "group": "nnss",
        "lat": 80.37641869976194,
        "lon": 77.94882422012475,
        "alt_km": 1138.8114367938706,
        "timestamp": "2025-12-24T05:51:19.877183+00:00",
        "meta_object_name": "OSCAR 29",
        "meta_object_id": "1987-080B",
        "meta_epoch": "2025-12-23T11:38:40.001280",
        "meta_mean_motion": 13.44450427,
        "meta_eccentricity": 0.01046277,
        "meta_inclination": 90.375,
        "meta_ra_of_asc_node": 80.1339,
        "meta_arg_of_pericenter": 216.0464,
        "meta_mean_anomaly": 154.8179,
        "meta_ephemeris_type": 0,
        "meta_classification_type": "U",
        "meta_norad_cat_id": 18362,
        "meta_element_set_no": 999,
        "meta_rev_at_epoch": 87654,
        "meta_bstar": 0.00017755719,
        "meta_mean_motion_dot": 1.15e-06,
        "meta_mean_motion_ddot": 0,
        "tle_line1": "1 18362U 87080B   25357.48518520  .00000115  00000+0  17756-3 0  9993",
        "tle_line2": "2 18362  90.3750  80.1339 0104627 216.0464 154.8179 13.44450427876542"
      },
      "geometry": {
        "type": "Point",
        "coordinates": [
          77.94882422012475,
          80.37641869976194
        ]
      }
    },
    {
      "type": "Feature",
      "properties": {
        "norad_id": 19070,
        "name": "OSCAR 23",
        "group": "nnss",
        "lat": -69.7134624035366,
        "lon": -164.11838819382578,
        "alt_km": 1188.8907594767688,
        "timestamp": "2025-12-24T05:51:19.877193+00:00",
        "meta_object_name": "OSCAR 23",
        "meta_object_id": "1988-033A",
        "meta_epoch": "2025-12-23T06:58:39.887616",
        "meta_mean_motion": 13.27788847,
        "meta_eccentricity": 0.01903681,
        "meta_inclination": 90.3204,
        "meta_ra_of_asc_node": 16.7193,
        "meta_arg_of_pericenter": 150.6466,
        "meta_mean_anomaly": 223.0077,
        "meta_ephemeris_type": 0,
        "meta_classification_type": "U",
        "meta_norad_cat_id": 19070,
        "meta_element_set_no": 999,
        "meta_rev_at_epoch": 82393,
        "meta_bstar": 0.00016075788,
        "meta_mean_motion_dot": 8.9e-07,
        "meta_mean_motion_ddot": 0,
        "tle_line1": "1 19070U 88033A   25357.29073944  .00000089  00000+0  16076-3 0  9998",
        "tle_line2": "2 19070  90.3204  16.7193 0190368 150.6466 223.0077 13.27788847823930"
      },
      "geometry": {
        "type": "Point",
        "coordinates": [
          -164.11838819382578,
          -69.7134624035366
        ]
      }
    }
  ]
}